[{"OBJECT_NAME":"GEESAT-1 03","OBJECT_ID":"2022-058C","EPOCH":"2026-03-09T22:14:40.890624","MEAN_MOTION":14.81007855,"ECCENTRICITY":0.00085744,"INCLINATION":49.9869,"RA_OF_ASC_NODE":299.7347,"ARG_OF_PERICENTER":85.2975,"MEAN_ANOMALY":274.8941,"EPHEMERIS_TYPE":0,"CLASSIFICATION_TYPE":"U","NORAD_CAT_ID":52787,"ELEMENT_SET_NO":999,"REV_AT_EPOCH":20522,"BSTAR":0.00036442214,"MEAN_MOTION_DOT":2.633e-5,"MEAN_MOTION_DDOT":0},{"OBJECT_NAME":"FENGYUN 1C DEB","OBJECT_ID":"1999-025BVP","EPOCH":"2026-03-03T22:16:58.238112","MEAN_MOTION":14.38832282,"ECCENTRICITY":0.0208206,"INCLINATION":98.9333,"RA_OF_ASC_NODE":320.0091,"ARG_OF_PERICENTER":227.5719,"MEAN_ANOMALY":130.7693,"EPHEMERIS_TYPE":0,"CLASSIFICATION_TYPE":"U","NORAD_CAT_ID":31475,"ELEMENT_SET_NO":999,"REV_AT_EPOCH":97246,"BSTAR":0.00084267,"MEAN_MOTION_DOT":3.282e-5,"MEAN_MOTION_DDOT":0}]
